{"type": "FeatureCollection", "features": [ {"type": "Feature", "properties": {"norad_id": 37834, "name": "INTELSAT 18 (IS-18)", "group": "intelsat", "lat": 0.03423141034651932, "lon": 23.792173969937384, "alt_km": 35786.74815695718, "timestamp": "2025-12-21T07:34:34.207926+00:00", "meta": {"OBJECT_NAME": "INTELSAT 18 (IS-18)", "OBJECT_ID": "2011-056A", "EPOCH": "2025-12-20T14:05:11.189184", "MEAN_MOTION": 1.00272416, "ECCENTRICITY": 0.00016725, "INCLINATION": 0.0331, "RA_OF_ASC_NODE": 280.5281, "ARG_OF_PERICENTER": 6.0874, "MEAN_ANOMALY": 194.1, "EPHEMERIS_TYPE": 0, "CLASSIFICATION_TYPE": "U", "NORAD_CAT_ID": 37834, "ELEMENT_SET_NO": 999, "REV_AT_EPOCH": 5202, "BSTAR": 0, "MEAN_MOTION_DOT": 7.7e-07, "MEAN_MOTION_DDOT": 0}, "tle": {"line1": "1 37834U 11056A   25354.58693506  .00000077  00000+0  00000+0 0  9991", "line2": "2 37834   0.0331 280.5281 0001672   6.0874 194.1000  1.00272416 52028"}}, "geometry": {"type": "Point", "coordinates": [23.792173969937384, 0.03423141034651932]}}, {"type": "Feature", "properties": {"norad_id": 38098, "name": "INTELSAT 22 (IS-22)", "group": "intelsat", "lat": -0.03474178931405004, "lon": -84.13927820354012, "alt_km": 35778.77486310232, "timestamp": "2025-12-21T07:34:34.207937+00:00", "meta": {"OBJECT_NAME": "INTELSAT 22 (IS-22)", "OBJECT_ID": "2012-011A", "EPOCH": "2025-12-20T22:08:00.864672", "MEAN_MOTION": 1.00270592, "ECCENTRICITY": 0.0001804, "INCLINATION": 0.0153, "RA_OF_ASC_NODE": 41.0537, "ARG_OF_PERICENTER": 236.4528, "MEAN_ANOMALY": 216.3383, "EPHEMERIS_TYPE": 0, "CLASSIFICATION_TYPE": "U", "NORAD_CAT_ID": 38098, "ELEMENT_SET_NO": 999, "REV_AT_EPOCH": 540, "BSTAR": 0, "MEAN_MOTION_DOT": -3.5e-07, "MEAN_MOTION_DDOT": 0}, "tle": {"line1": "1 38098U 12011A   25354.92223223 -.00000035  00000+0  00000+0 0  9994", "line2": "2 38098   0.0153  41.0537 0001804 236.4528 216.3383  1.00270592  5403"}}, "geometry": {"type": "Point", "coordinates": [-84.13927820354012, -0.03474178931405004]}}, {"type": "Feature", "properties": {"norad_id": 38356, "name": "INTELSAT 19 (IS-19)", "group": "intelsat", "lat": 0.0026866421169105146, "lon": 9.800284143039606, "alt_km": 35788.940677859566, "timestamp": "2025-12-21T07:34:34.207948+00:00", "meta": {"OBJECT_NAME": "INTELSAT 19 (IS-19)", "OBJECT_ID": "2012-030A", "EPOCH": "2025-12-20T20:52:00.645024", "MEAN_MOTION": 1.002713, "ECCENTRICITY": 0.00027457, "INCLINATION": 0.0115, "RA_OF_ASC_NODE": 9.9431, "ARG_OF_PERICENTER": 256.2341, "MEAN_ANOMALY": 302.522, "EPHEMERIS_TYPE": 0, "CLASSIFICATION_TYPE": "U", "NORAD_CAT_ID": 38356, "ELEMENT_SET_NO": 999, "REV_AT_EPOCH": 4866, "BSTAR": 0, "MEAN_MOTION_DOT": -3.3e-07, "MEAN_MOTION_DDOT": 0}, "tle": {"line1": "1 38356U 12030A   25354.86945191 -.00000033  00000+0  00000+0 0  9998", "line2": "2 38356   0.0115   9.9431 0002745 256.2341 302.5220  1.00271300 48663"}}, "geometry": {"type": "Point", "coordinates": [9.800284143039606, 0.0026866421169105146]}}, {"type": "Feature", "properties": {"norad_id": 38740, "name": "INTELSAT 20 (IS-20)", "group": "intelsat", "lat": -0.01213281289639018, "lon": -87.70085593180028, "alt_km": 35785.67445497189, "timestamp": "2025-12-21T07:34:34.207958+00:00", "meta": {"OBJECT_NAME": "INTELSAT 20 (IS-20)", "OBJECT_ID": "2012-043A", "EPOCH": "2025-12-20T22:06:53.471808", "MEAN_MOTION": 1.00272305, "ECCENTRICITY": 0.00033801, "INCLINATION": 0.0095, "RA_OF_ASC_NODE": 84.4462, "ARG_OF_PERICENTER": 98.7981, "MEAN_ANOMALY": 306.7158, "EPHEMERIS_TYPE": 0, "CLASSIFICATION_TYPE": "U", "NORAD_CAT_ID": 38740, "ELEMENT_SET_NO": 999, "REV_AT_EPOCH": 4896, "BSTAR": 0, "MEAN_MOTION_DOT": -1e-08, "MEAN_MOTION_DDOT": 0}, "tle": {"line1": "1 38740U 12043A   25354.92145222 -.00000001  00000+0  00000+0 0  9998", "line2": "2 38740   0.0095  84.4462 0003380  98.7981 306.7158  1.00272305 48969"}}, "geometry": {"type": "Point", "coordinates": [-87.70085593180028, -0.01213281289639018]}}, {"type": "Feature", "properties": {"norad_id": 38749, "name": "INTELSAT 21 (IS-21)", "group": "intelsat", "lat": -0.002441647941231124, "lon": 145.75679899438884, "alt_km": 35788.712352824834, "timestamp": "2025-12-21T07:34:34.207969+00:00", "meta": {"OBJECT_NAME": "INTELSAT 21 (IS-21)", "OBJECT_ID": "2012-045A", "EPOCH": "2025-12-20T21:30:49.427424", "MEAN_MOTION": 1.00272202, "ECCENTRICITY": 0.00014994, "INCLINATION": 0.0242, "RA_OF_ASC_NODE": 290.4648, "ARG_OF_PERICENTER": 330.3251, "MEAN_ANOMALY": 93.6408, "EPHEMERIS_TYPE": 0, "CLASSIFICATION_TYPE": "U", "NORAD_CAT_ID": 38749, "ELEMENT_SET_NO": 999, "REV_AT_EPOCH": 4873, "BSTAR": 0, "MEAN_MOTION_DOT": -2.62e-06, "MEAN_MOTION_DDOT": 0}, "tle": {"line1": "1 38749U 12045A   25354.89640541 -.00000262  00000+0  00000+0 0  9998", "line2": "2 38749   0.0242 290.4648 0001499 330.3251  93.6408  1.00272202 48732"}}, "geometry": {"type": "Point", "coordinates": [145.75679899438884, -0.002441647941231124]}}, {"type": "Feature", "properties": {"norad_id": 38867, "name": "INTELSAT 23 (IS-23)", "group": "intelsat", "lat": 0.025429744034126088, "lon": 150.79091468181207, "alt_km": 35789.05959342141, "timestamp": "2025-12-21T07:34:34.207979+00:00", "meta": {"OBJECT_NAME": "INTELSAT 23 (IS-23)", "OBJECT_ID": "2012-057A", "EPOCH": "2025-12-20T21:32:19.284288", "MEAN_MOTION": 1.00269471, "ECCENTRICITY": 6.312e-05, "INCLINATION": 0.0145, "RA_OF_ASC_NODE": 59.1671, "ARG_OF_PERICENTER": 240.7415, "MEAN_ANOMALY": 59.9238, "EPHEMERIS_TYPE": 0, "CLASSIFICATION_TYPE": "U", "NORAD_CAT_ID": 38867, "ELEMENT_SET_NO": 999, "REV_AT_EPOCH": 4816, "BSTAR": 0, "MEAN_MOTION_DOT": -2.61e-06, "MEAN_MOTION_DDOT": 0}, "tle": {"line1": "1 38867U 12057A   25354.89744542 -.00000261  00000+0  00000+0 0  9997", "line2": "2 38867   0.0145  59.1671 0000631 240.7415  59.9238  1.00269471 48161"}}, "geometry": {"type": "Point", "coordinates": [150.79091468181207, 0.025429744034126088]}}, {"type": "Feature", "properties": {"norad_id": 39360, "name": "FM-6", "group": "intelsat", "lat": 0.020440755125163027, "lon": 87.5873083364078, "alt_km": 35784.25102041955, "timestamp": "2025-12-21T07:34:34.207990+00:00", "meta": {"OBJECT_NAME": "FM-6", "OBJECT_ID": "2013-058A", "EPOCH": "2025-12-20T21:14:21.005376", "MEAN_MOTION": 1.00274969, "ECCENTRICITY": 0.00029096, "INCLINATION": 0.0116, "RA_OF_ASC_NODE": 64.5773, "ARG_OF_PERICENTER": 108.7447, "MEAN_ANOMALY": 118.8224, "EPHEMERIS_TYPE": 0, "CLASSIFICATION_TYPE": "U", "NORAD_CAT_ID": 39360, "ELEMENT_SET_NO": 999, "REV_AT_EPOCH": 4428, "BSTAR": 0, "MEAN_MOTION_DOT": 6e-08, "MEAN_MOTION_DDOT": 0}, "tle": {"line1": "1 39360U 13058A   25354.88496534  .00000006  00000+0  00000+0 0  9998", "line2": "2 39360   0.0116  64.5773 0002909 108.7447 118.8224  1.00274969 44286"}}, "geometry": {"type": "Point", "coordinates": [87.5873083364078, 0.020440755125163027]}}, {"type": "Feature", "properties": {"norad_id": 40271, "name": "INTELSAT 30 (IS-30)", "group": "intelsat", "lat": 0.039564519250479525, "lon": 108.73387255134533, "alt_km": 35779.291760453365, "timestamp": "2025-12-21T07:34:34.208000+00:00", "meta": {"OBJECT_NAME": "INTELSAT 30 (IS-30)", "OBJECT_ID": "2014-062A", "EPOCH": "2025-12-20T14:29:23.871264", "MEAN_MOTION": 1.00273635, "ECCENTRICITY": 0.00015801, "INCLINATION": 0.0137, "RA_OF_ASC_NODE": 20.9198, "ARG_OF_PERICENTER": 67.8039, "MEAN_ANOMALY": 123.013, "EPHEMERIS_TYPE": 0, "CLASSIFICATION_TYPE": "U", "NORAD_CAT_ID": 40271, "ELEMENT_SET_NO": 999, "REV_AT_EPOCH": 500, "BSTAR": 0, "MEAN_MOTION_DOT": -1.28e-06, "MEAN_MOTION_DDOT": 0}, "tle": {"line1": "1 40271U 14062A   25354.60374851 -.00000128  00000+0  00000+0 0  9990", "line2": "2 40271   0.0137  20.9198 0001580  67.8039 123.0130  1.00273635  5005"}}, "geometry": {"type": "Point", "coordinates": [108.73387255134533, 0.039564519250479525]}}, {"type": "Feature", "properties": {"norad_id": 40333, "name": "DIRECTV 14", "group": "intelsat", "lat": 0.020096257947283327, "lon": 104.55131416620584, "alt_km": 35785.35517553545, "timestamp": "2025-12-21T07:34:34.208010+00:00", "meta": {"OBJECT_NAME": "DIRECTV 14", "OBJECT_ID": "2014-078B", "EPOCH": "2025-12-20T16:10:59.142432", "MEAN_MOTION": 1.00270571, "ECCENTRICITY": 2.675e-05, "INCLINATION": 0.0061, "RA_OF_ASC_NODE": 316.1173, "ARG_OF_PERICENTER": 165.3968, "MEAN_ANOMALY": 111.5212, "EPHEMERIS_TYPE": 0, "CLASSIFICATION_TYPE": "U", "NORAD_CAT_ID": 40333, "ELEMENT_SET_NO": 999, "REV_AT_EPOCH": 4025, "BSTAR": 0, "MEAN_MOTION_DOT": -1.02e-06, "MEAN_MOTION_DDOT": 0}, "tle": {"line1": "1 40333U 14078B   25354.67429563 -.00000102  00000+0  00000+0 0  9996", "line2": "2 40333   0.0061 316.1173 0000267 165.3968 111.5212  1.00270571 40254"}}, "geometry": {"type": "Point", "coordinates": [104.55131416620584, 0.020096257947283327]}}, {"type": "Feature", "properties": {"norad_id": 40663, "name": "DIRECTV 15", "group": "intelsat", "lat": 0.05135573694240233, "lon": 100.88750635992513, "alt_km": 35785.25596616078, "timestamp": "2025-12-21T07:34:34.208021+00:00", "meta": {"OBJECT_NAME": "DIRECTV 15", "OBJECT_ID": "2015-026A", "EPOCH": "2025-12-20T21:18:05.647104", "MEAN_MOTION": 1.00270293, "ECCENTRICITY": 3.349e-05, "INCLINATION": 0.0249, "RA_OF_ASC_NODE": 16.0818, "ARG_OF_PERICENTER": 113.146, "MEAN_ANOMALY": 177.1314, "EPHEMERIS_TYPE": 0, "CLASSIFICATION_TYPE": "U", "NORAD_CAT_ID": 40663, "ELEMENT_SET_NO": 999, "REV_AT_EPOCH": 3867, "BSTAR": 0, "MEAN_MOTION_DOT": 0, "MEAN_MOTION_DDOT": 0}, "tle": {"line1": "1 40663U 15026A   25354.88756536  .00000000  00000+0  00000+0 0  9998", "line2": "2 40663   0.0249  16.0818 0000334 113.1460 177.1314  1.00270293 38678"}}, "geometry": {"type": "Point", "coordinates": [100.88750635992513, 0.05135573694240233]}}]}